STARLINK-34851          
1 66447U 25259AB  25337.33335648 -.00084406  00000+0 -14478-2 0  9994
2 66447  43.0001 102.2381 0001546 267.3657  28.1488 15.50592197  4667
STARLINK-35355          
1 66448U 25259AC  25337.33335648 -.00146588  00000+0 -25328-2 0  9991
2 66448  43.0001 102.2335 0001538 264.1005  33.2762 15.50657019  4768
STARLINK-34720          
1 66449U 25259AD  25337.33335648 -.00055103  00000+0 -94056-3 0  9999
2 66449  43.0002 102.2274 0001479 267.0265  32.3716 15.50563841  4663
STARLINK-35334          
1 66450U 25259AE  25337.33335648 -.00006764  00000+0 -10963-3 0  9995
2 66450  43.0002 102.2217 0001463 260.1098  41.1311 15.50562883  4768
VIASAT-3 F2             
1 66454U 25261A   25337.18258943 -.00000052  00000+0  00000+0 0  9997
2 66454   5.5737 293.2208 2342170 184.0512 219.9832  2.28102609   431
ATLAS 5 CENTAUR R/B     
1 66455U 25261B   25337.18137609 -.00000052  00000+0  00000+0 0  9993
2 66455   6.1583 292.5721 2329647 184.5618 210.3221  2.28259326   432
STARLINK-35643          
1 66456U 25262A   25337.33335648 -.02061814  00000+0 -27901-1 0  9992
2 66456  42.9993 126.2322 0001630 264.1633  36.5211 15.60455266  4123
STARLINK-35466          
1 66457U 25262B   25337.33335648 -.02053974  00000+0 -27785-1 0  9991
2 66457  42.9993 126.2224 0001773 265.5253  38.9972 15.60447923  4127
STARLINK-35684          
1 66458U 25262C   25337.33335648 -.02056930  00000+0 -27828-1 0  9995
2 66458  42.9991 126.2271 0001809 262.8927  39.7111 15.60450683  4127
STARLINK-35449          
1 66459U 25262D   25337.33335648 -.02056958  00000+0 -27830-1 0  9999
2 66459  42.9990 126.2174 0001685 265.3364  41.1030 15.60450022  4128
STARLINK-35424          
1 66460U 25262E   25337.33335648 -.02055877  00000+0 -27817-1 0  9995
2 66460  42.9990 126.2126 0001547 262.7246  45.6358 15.60448347  4123
STARLINK-35132          
1 66461U 25262F   25337.33335648 -.02062690  00000+0 -27914-1 0  9995
2 66461  42.9992 126.2077 0001598 265.2015  45.0681 15.60456342  4126
