CCSDS_OMM_VERS = 2.0
CREATION_DATE  = 
ORIGINATOR     = 

OBJECT_NAME    = STARLINK-34851
OBJECT_ID      = 2025-259AB
CENTER_NAME    = EARTH
REF_FRAME      = TEME
TIME_SYSTEM    = UTC
MEAN_ELEMENT_THEORY = SGP/SGP4

EPOCH          = 2025-12-03T08:00:01.999872
MEAN_MOTION    = 15.50592197
ECCENTRICITY   = .00015463
INCLINATION    = 43.0001
RA_OF_ASC_NODE = 102.2381
ARG_OF_PERICENTER = 267.3657
MEAN_ANOMALY   = 28.1488

EPHEMERIS_TYPE = 0
CLASSIFICATION_TYPE = U
NORAD_CAT_ID   = 66447
ELEMENT_SET_NO = 999
REV_AT_EPOCH   = 466
BSTAR          = -.14477693E-2
MEAN_MOTION_DOT = -.84406E-3
MEAN_MOTION_DDOT = 0

CCSDS_OMM_VERS = 2.0
CREATION_DATE  = 
ORIGINATOR     = 

OBJECT_NAME    = STARLINK-35355
OBJECT_ID      = 2025-259AC
CENTER_NAME    = EARTH
REF_FRAME      = TEME
TIME_SYSTEM    = UTC
MEAN_ELEMENT_THEORY = SGP/SGP4

EPOCH          = 2025-12-03T08:00:01.999872
MEAN_MOTION    = 15.50657019
ECCENTRICITY   = .00015385
INCLINATION    = 43.0001
RA_OF_ASC_NODE = 102.2335
ARG_OF_PERICENTER = 264.1005
MEAN_ANOMALY   = 33.2762

EPHEMERIS_TYPE = 0
CLASSIFICATION_TYPE = U
NORAD_CAT_ID   = 66448
ELEMENT_SET_NO = 999
REV_AT_EPOCH   = 476
BSTAR          = -.2532771E-2
MEAN_MOTION_DOT = -.146588E-2
MEAN_MOTION_DDOT = 0

CCSDS_OMM_VERS = 2.0
CREATION_DATE  = 
ORIGINATOR     = 

OBJECT_NAME    = STARLINK-34720
OBJECT_ID      = 2025-259AD
CENTER_NAME    = EARTH
REF_FRAME      = TEME
TIME_SYSTEM    = UTC
MEAN_ELEMENT_THEORY = SGP/SGP4

EPOCH          = 2025-12-03T08:00:01.999872
MEAN_MOTION    = 15.50563841
ECCENTRICITY   = .00014792
INCLINATION    = 43.0002
RA_OF_ASC_NODE = 102.2274
ARG_OF_PERICENTER = 267.0265
MEAN_ANOMALY   = 32.3716

EPHEMERIS_TYPE = 0
CLASSIFICATION_TYPE = U
NORAD_CAT_ID   = 66449
ELEMENT_SET_NO = 999
REV_AT_EPOCH   = 466
BSTAR          = -.94056125E-3
MEAN_MOTION_DOT = -.55103E-3
MEAN_MOTION_DDOT = 0

CCSDS_OMM_VERS = 2.0
CREATION_DATE  = 
ORIGINATOR     = 

OBJECT_NAME    = STARLINK-35334
OBJECT_ID      = 2025-259AE
CENTER_NAME    = EARTH
REF_FRAME      = TEME
TIME_SYSTEM    = UTC
MEAN_ELEMENT_THEORY = SGP/SGP4

EPOCH          = 2025-12-03T08:00:01.999872
MEAN_MOTION    = 15.50562883
ECCENTRICITY   = .00014632
INCLINATION    = 43.0002
RA_OF_ASC_NODE = 102.2217
ARG_OF_PERICENTER = 260.1098
MEAN_ANOMALY   = 41.1311

EPHEMERIS_TYPE = 0
CLASSIFICATION_TYPE = U
NORAD_CAT_ID   = 66450
ELEMENT_SET_NO = 999
REV_AT_EPOCH   = 476
BSTAR          = -.10963131E-3
MEAN_MOTION_DOT = -.6764E-4
MEAN_MOTION_DDOT = 0

CCSDS_OMM_VERS = 2.0
CREATION_DATE  = 
ORIGINATOR     = 

OBJECT_NAME    = VIASAT-3 F2
OBJECT_ID      = 2025-261A
CENTER_NAME    = EARTH
REF_FRAME      = TEME
TIME_SYSTEM    = UTC
MEAN_ELEMENT_THEORY = SGP/SGP4

EPOCH          = 2025-12-03T04:22:55.726752
MEAN_MOTION    = 2.28102609
ECCENTRICITY   = .23421704
INCLINATION    = 5.5737
RA_OF_ASC_NODE = 293.2208
ARG_OF_PERICENTER = 184.0512
MEAN_ANOMALY   = 219.9832

EPHEMERIS_TYPE = 0
CLASSIFICATION_TYPE = U
NORAD_CAT_ID   = 66454
ELEMENT_SET_NO = 999
REV_AT_EPOCH   = 43
BSTAR          = 0
MEAN_MOTION_DOT = -.52E-6
MEAN_MOTION_DDOT = 0

CCSDS_OMM_VERS = 2.0
CREATION_DATE  = 
ORIGINATOR     = 

OBJECT_NAME    = ATLAS 5 CENTAUR R/B
OBJECT_ID      = 2025-261B
CENTER_NAME    = EARTH
REF_FRAME      = TEME
TIME_SYSTEM    = UTC
MEAN_ELEMENT_THEORY = SGP/SGP4

EPOCH          = 2025-12-03T04:21:10.894176
MEAN_MOTION    = 2.28259326
ECCENTRICITY   = .23296479
INCLINATION    = 6.1583
RA_OF_ASC_NODE = 292.5721
ARG_OF_PERICENTER = 184.5618
MEAN_ANOMALY   = 210.3221

EPHEMERIS_TYPE = 0
CLASSIFICATION_TYPE = U
NORAD_CAT_ID   = 66455
ELEMENT_SET_NO = 999
REV_AT_EPOCH   = 43
BSTAR          = 0
MEAN_MOTION_DOT = -.52E-6
MEAN_MOTION_DDOT = 0

CCSDS_OMM_VERS = 2.0
CREATION_DATE  = 
ORIGINATOR     = 

OBJECT_NAME    = STARLINK-35643
OBJECT_ID      = 2025-262A
CENTER_NAME    = EARTH
REF_FRAME      = TEME
TIME_SYSTEM    = UTC
MEAN_ELEMENT_THEORY = SGP/SGP4

EPOCH          = 2025-12-03T08:00:01.999872
MEAN_MOTION    = 15.60455266
ECCENTRICITY   = .00016308
INCLINATION    = 42.9993
RA_OF_ASC_NODE = 126.2322
ARG_OF_PERICENTER = 264.1633
MEAN_ANOMALY   = 36.5211

EPHEMERIS_TYPE = 0
CLASSIFICATION_TYPE = U
NORAD_CAT_ID   = 66456
ELEMENT_SET_NO = 999
REV_AT_EPOCH   = 412
BSTAR          = -.27900862E-1
MEAN_MOTION_DOT = -.2061814E-1
MEAN_MOTION_DDOT = 0

CCSDS_OMM_VERS = 2.0
CREATION_DATE  = 
ORIGINATOR     = 

OBJECT_NAME    = STARLINK-35466
OBJECT_ID      = 2025-262B
CENTER_NAME    = EARTH
REF_FRAME      = TEME
TIME_SYSTEM    = UTC
MEAN_ELEMENT_THEORY = SGP/SGP4

EPOCH          = 2025-12-03T08:00:01.999872
MEAN_MOTION    = 15.60447923
ECCENTRICITY   = .00017734
INCLINATION    = 42.9993
RA_OF_ASC_NODE = 126.2224
ARG_OF_PERICENTER = 265.5253
MEAN_ANOMALY   = 38.9972

EPHEMERIS_TYPE = 0
CLASSIFICATION_TYPE = U
NORAD_CAT_ID   = 66457
ELEMENT_SET_NO = 999
REV_AT_EPOCH   = 412
BSTAR          = -.2778529E-1
MEAN_MOTION_DOT = -.2053974E-1
MEAN_MOTION_DDOT = 0

CCSDS_OMM_VERS = 2.0
CREATION_DATE  = 
ORIGINATOR     = 

OBJECT_NAME    = STARLINK-35684
OBJECT_ID      = 2025-262C
CENTER_NAME    = EARTH
REF_FRAME      = TEME
TIME_SYSTEM    = UTC
MEAN_ELEMENT_THEORY = SGP/SGP4

EPOCH          = 2025-12-03T08:00:01.999872
MEAN_MOTION    = 15.60450683
ECCENTRICITY   = .00018098
INCLINATION    = 42.9991
RA_OF_ASC_NODE = 126.2271
ARG_OF_PERICENTER = 262.8927
MEAN_ANOMALY   = 39.7111

EPHEMERIS_TYPE = 0
CLASSIFICATION_TYPE = U
NORAD_CAT_ID   = 66458
ELEMENT_SET_NO = 999
REV_AT_EPOCH   = 412
BSTAR          = -.27827727E-1
MEAN_MOTION_DOT = -.205693E-1
MEAN_MOTION_DDOT = 0

CCSDS_OMM_VERS = 2.0
CREATION_DATE  = 
ORIGINATOR     = 

OBJECT_NAME    = STARLINK-35449
OBJECT_ID      = 2025-262D
CENTER_NAME    = EARTH
REF_FRAME      = TEME
TIME_SYSTEM    = UTC
MEAN_ELEMENT_THEORY = SGP/SGP4

EPOCH          = 2025-12-03T08:00:01.999872
MEAN_MOTION    = 15.60450022
ECCENTRICITY   = .00016853
INCLINATION    = 42.9990
RA_OF_ASC_NODE = 126.2174
ARG_OF_PERICENTER = 265.3364
MEAN_ANOMALY   = 41.1030

EPHEMERIS_TYPE = 0
CLASSIFICATION_TYPE = U
NORAD_CAT_ID   = 66459
ELEMENT_SET_NO = 999
REV_AT_EPOCH   = 412
BSTAR          = -.27830445E-1
MEAN_MOTION_DOT = -.2056958E-1
MEAN_MOTION_DDOT = 0

CCSDS_OMM_VERS = 2.0
CREATION_DATE  = 
ORIGINATOR     = 

OBJECT_NAME    = STARLINK-35424
OBJECT_ID      = 2025-262E
CENTER_NAME    = EARTH
REF_FRAME      = TEME
TIME_SYSTEM    = UTC
MEAN_ELEMENT_THEORY = SGP/SGP4

EPOCH          = 2025-12-03T08:00:01.999872
MEAN_MOTION    = 15.60448347
ECCENTRICITY   = .00015471
INCLINATION    = 42.9990
RA_OF_ASC_NODE = 126.2126
ARG_OF_PERICENTER = 262.7246
MEAN_ANOMALY   = 45.6358

EPHEMERIS_TYPE = 0
CLASSIFICATION_TYPE = U
NORAD_CAT_ID   = 66460
ELEMENT_SET_NO = 999
REV_AT_EPOCH   = 412
BSTAR          = -.27817184E-1
MEAN_MOTION_DOT = -.2055877E-1
MEAN_MOTION_DDOT = 0

CCSDS_OMM_VERS = 2.0
CREATION_DATE  = 
ORIGINATOR     = 

OBJECT_NAME    = STARLINK-35132
OBJECT_ID      = 2025-262F
CENTER_NAME    = EARTH
REF_FRAME      = TEME
TIME_SYSTEM    = UTC
MEAN_ELEMENT_THEORY = SGP/SGP4

EPOCH          = 2025-12-03T08:00:01.999872
MEAN_MOTION    = 15.60456342
ECCENTRICITY   = .00015989
INCLINATION    = 42.9992
RA_OF_ASC_NODE = 126.2077
ARG_OF_PERICENTER = 265.2015
MEAN_ANOMALY   = 45.0681

EPHEMERIS_TYPE = 0
CLASSIFICATION_TYPE = U
NORAD_CAT_ID   = 66461
ELEMENT_SET_NO = 999
REV_AT_EPOCH   = 412
BSTAR          = -.27913693E-1
MEAN_MOTION_DOT = -.206269E-1
MEAN_MOTION_DDOT = 0

